CCSDS_OMM_VERS = 2.0
CREATION_DATE  = 
ORIGINATOR     = 

OBJECT_NAME    = STARLINK-35667
OBJECT_ID      = 2025-257W
CENTER_NAME    = EARTH
REF_FRAME      = TEME
TIME_SYSTEM    = UTC
MEAN_ELEMENT_THEORY = SGP/SGP4

EPOCH          = 2025-12-06T04:21:09.466848
MEAN_MOTION    = 15.49356007
ECCENTRICITY   = .00018529
INCLINATION    = 53.1592
RA_OF_ASC_NODE = 295.1350
ARG_OF_PERICENTER = 118.9172
MEAN_ANOMALY   = 241.2023

EPHEMERIS_TYPE = 0
CLASSIFICATION_TYPE = U
NORAD_CAT_ID   = 66400
ELEMENT_SET_NO = 999
REV_AT_EPOCH   = 536
BSTAR          = -.68117353E-3
MEAN_MOTION_DOT = -.38213E-3
MEAN_MOTION_DDOT = 0

CCSDS_OMM_VERS = 2.0
CREATION_DATE  = 
ORIGINATOR     = 

OBJECT_NAME    = STARLINK-35668
OBJECT_ID      = 2025-257X
CENTER_NAME    = EARTH
REF_FRAME      = TEME
TIME_SYSTEM    = UTC
MEAN_ELEMENT_THEORY = SGP/SGP4

EPOCH          = 2025-12-06T08:00:01.999872
MEAN_MOTION    = 15.49728436
ECCENTRICITY   = .00015575
INCLINATION    = 53.1587
RA_OF_ASC_NODE = 294.4065
ARG_OF_PERICENTER = 90.2703
MEAN_ANOMALY   = 39.9269

EPHEMERIS_TYPE = 0
CLASSIFICATION_TYPE = U
NORAD_CAT_ID   = 66401
ELEMENT_SET_NO = 999
REV_AT_EPOCH   = 546
BSTAR          = -.33578695E-1
MEAN_MOTION_DOT = -.1694206E-1
MEAN_MOTION_DDOT = 0

CCSDS_OMM_VERS = 2.0
CREATION_DATE  = 
ORIGINATOR     = 

OBJECT_NAME    = STARLINK-35644
OBJECT_ID      = 2025-257Y
CENTER_NAME    = EARTH
REF_FRAME      = TEME
TIME_SYSTEM    = UTC
MEAN_ELEMENT_THEORY = SGP/SGP4

EPOCH          = 2025-12-06T05:53:33.843840
MEAN_MOTION    = 15.49361286
ECCENTRICITY   = .00007923
INCLINATION    = 53.1581
RA_OF_ASC_NODE = 294.8244
ARG_OF_PERICENTER = 85.5717
MEAN_ANOMALY   = 274.5382

EPHEMERIS_TYPE = 0
CLASSIFICATION_TYPE = U
NORAD_CAT_ID   = 66402
ELEMENT_SET_NO = 999
REV_AT_EPOCH   = 537
BSTAR          = .18840832E-2
MEAN_MOTION_DOT = .105964E-2
MEAN_MOTION_DDOT = 0

CCSDS_OMM_VERS = 2.0
CREATION_DATE  = 
ORIGINATOR     = 

OBJECT_NAME    = STARLINK-35602
OBJECT_ID      = 2025-257Z
CENTER_NAME    = EARTH
REF_FRAME      = TEME
TIME_SYSTEM    = UTC
MEAN_ELEMENT_THEORY = SGP/SGP4

EPOCH          = 2025-12-06T04:20:10.783968
MEAN_MOTION    = 15.49424028
ECCENTRICITY   = .00014724
INCLINATION    = 53.1591
RA_OF_ASC_NODE = 295.1307
ARG_OF_PERICENTER = 117.2823
MEAN_ANOMALY   = 242.8336

EPHEMERIS_TYPE = 0
CLASSIFICATION_TYPE = U
NORAD_CAT_ID   = 66403
ELEMENT_SET_NO = 999
REV_AT_EPOCH   = 536
BSTAR          = .22222457E-2
MEAN_MOTION_DOT = .12566E-2
MEAN_MOTION_DDOT = 0

CCSDS_OMM_VERS = 2.0
CREATION_DATE  = 
ORIGINATOR     = 

OBJECT_NAME    = STARLINK-35691
OBJECT_ID      = 2025-257AA
CENTER_NAME    = EARTH
REF_FRAME      = TEME
TIME_SYSTEM    = UTC
MEAN_ELEMENT_THEORY = SGP/SGP4

EPOCH          = 2025-12-06T07:25:27.788160
MEAN_MOTION    = 15.49375939
ECCENTRICITY   = .0000455
INCLINATION    = 53.1594
RA_OF_ASC_NODE = 294.5115
ARG_OF_PERICENTER = 127.6305
MEAN_ANOMALY   = 232.4745

EPHEMERIS_TYPE = 0
CLASSIFICATION_TYPE = U
NORAD_CAT_ID   = 66404
ELEMENT_SET_NO = 999
REV_AT_EPOCH   = 538
BSTAR          = .20746218E-2
MEAN_MOTION_DOT = .116952E-2
MEAN_MOTION_DDOT = 0

CCSDS_OMM_VERS = 2.0
CREATION_DATE  = 
ORIGINATOR     = 

OBJECT_NAME    = STARLINK-35683
OBJECT_ID      = 2025-257AB
CENTER_NAME    = EARTH
REF_FRAME      = TEME
TIME_SYSTEM    = UTC
MEAN_ELEMENT_THEORY = SGP/SGP4

EPOCH          = 2025-12-06T04:19:12.292032
MEAN_MOTION    = 15.49283742
ECCENTRICITY   = .00008737
INCLINATION    = 53.1588
RA_OF_ASC_NODE = 295.1251
ARG_OF_PERICENTER = 49.0539
MEAN_ANOMALY   = 311.0545

EPHEMERIS_TYPE = 0
CLASSIFICATION_TYPE = U
NORAD_CAT_ID   = 66405
ELEMENT_SET_NO = 999
REV_AT_EPOCH   = 529
BSTAR          = .17587566E-2
MEAN_MOTION_DOT = .98521E-3
MEAN_MOTION_DDOT = 0

CCSDS_OMM_VERS = 2.0
CREATION_DATE  = 
ORIGINATOR     = 

OBJECT_NAME    = STARLINK-34840
OBJECT_ID      = 2025-257AC
CENTER_NAME    = EARTH
REF_FRAME      = TEME
TIME_SYSTEM    = UTC
MEAN_ELEMENT_THEORY = SGP/SGP4

EPOCH          = 2025-12-06T08:56:22.817184
MEAN_MOTION    = 15.49360559
ECCENTRICITY   = .00012408
INCLINATION    = 53.1588
RA_OF_ASC_NODE = 294.1932
ARG_OF_PERICENTER = 83.4805
MEAN_ANOMALY   = 276.6345

EPHEMERIS_TYPE = 0
CLASSIFICATION_TYPE = U
NORAD_CAT_ID   = 66406
ELEMENT_SET_NO = 999
REV_AT_EPOCH   = 533
BSTAR          = .1811742E-2
MEAN_MOTION_DOT = .101821E-2
MEAN_MOTION_DDOT = 0

CCSDS_OMM_VERS = 2.0
CREATION_DATE  = 
ORIGINATOR     = 

OBJECT_NAME    = STARLINK-35686
OBJECT_ID      = 2025-257AD
CENTER_NAME    = EARTH
REF_FRAME      = TEME
TIME_SYSTEM    = UTC
MEAN_ELEMENT_THEORY = SGP/SGP4

EPOCH          = 2025-12-06T04:18:41.752224
MEAN_MOTION    = 15.49345649
ECCENTRICITY   = .0001858
INCLINATION    = 53.1589
RA_OF_ASC_NODE = 295.1224
ARG_OF_PERICENTER = 99.0415
MEAN_ANOMALY   = 261.0804

EPHEMERIS_TYPE = 0
CLASSIFICATION_TYPE = U
NORAD_CAT_ID   = 66407
ELEMENT_SET_NO = 999
REV_AT_EPOCH   = 536
BSTAR          = .19143547E-2
MEAN_MOTION_DOT = .107639E-2
MEAN_MOTION_DDOT = 0

CCSDS_OMM_VERS = 2.0
CREATION_DATE  = 
ORIGINATOR     = 

OBJECT_NAME    = STARLINK-35679
OBJECT_ID      = 2025-257AE
CENTER_NAME    = EARTH
REF_FRAME      = TEME
TIME_SYSTEM    = UTC
MEAN_ELEMENT_THEORY = SGP/SGP4

EPOCH          = 2025-12-06T04:18:12.054816
MEAN_MOTION    = 15.49356651
ECCENTRICITY   = .00016029
INCLINATION    = 53.1593
RA_OF_ASC_NODE = 295.1224
ARG_OF_PERICENTER = 102.3098
MEAN_ANOMALY   = 257.8091

EPHEMERIS_TYPE = 0
CLASSIFICATION_TYPE = U
NORAD_CAT_ID   = 66408
ELEMENT_SET_NO = 999
REV_AT_EPOCH   = 536
BSTAR          = .18816254E-2
MEAN_MOTION_DOT = .105806E-2
MEAN_MOTION_DDOT = 0

CCSDS_OMM_VERS = 2.0
CREATION_DATE  = 
ORIGINATOR     = 

OBJECT_NAME    = CHUTIAN-2 A
OBJECT_ID      = 2025-256A
CENTER_NAME    = EARTH
REF_FRAME      = TEME
TIME_SYSTEM    = UTC
MEAN_ELEMENT_THEORY = SGP/SGP4

EPOCH          = 2025-12-06T14:00:47.187072
MEAN_MOTION    = 14.49929258
ECCENTRICITY   = .0013376
INCLINATION    = 98.2779
RA_OF_ASC_NODE = 45.4539
ARG_OF_PERICENTER = 196.4545
MEAN_ANOMALY   = 163.6217

EPHEMERIS_TYPE = 0
CLASSIFICATION_TYPE = U
NORAD_CAT_ID   = 66409
ELEMENT_SET_NO = 999
REV_AT_EPOCH   = 398
BSTAR          = .36107111E-3
MEAN_MOTION_DOT = .1354E-4
MEAN_MOTION_DDOT = 0

CCSDS_OMM_VERS = 2.0
CREATION_DATE  = 
ORIGINATOR     = 

OBJECT_NAME    = CHUTIAN-2 B
OBJECT_ID      = 2025-256B
CENTER_NAME    = EARTH
REF_FRAME      = TEME
TIME_SYSTEM    = UTC
MEAN_ELEMENT_THEORY = SGP/SGP4

EPOCH          = 2025-12-06T13:40:38.362944
MEAN_MOTION    = 14.51013913
ECCENTRICITY   = .00134521
INCLINATION    = 98.2803
RA_OF_ASC_NODE = 45.4800
ARG_OF_PERICENTER = 200.2195
MEAN_ANOMALY   = 159.8468

EPHEMERIS_TYPE = 0
CLASSIFICATION_TYPE = U
NORAD_CAT_ID   = 66410
ELEMENT_SET_NO = 999
REV_AT_EPOCH   = 398
BSTAR          = .34454829E-3
MEAN_MOTION_DOT = .132E-4
MEAN_MOTION_DDOT = 0

CCSDS_OMM_VERS = 2.0
CREATION_DATE  = 
ORIGINATOR     = 

OBJECT_NAME    = ZK-1A R/B
OBJECT_ID      = 2025-256C
CENTER_NAME    = EARTH
REF_FRAME      = TEME
TIME_SYSTEM    = UTC
MEAN_ELEMENT_THEORY = SGP/SGP4

EPOCH          = 2025-12-06T12:25:58.282752
MEAN_MOTION    = 15.01758996
ECCENTRICITY   = .02289872
INCLINATION    = 98.3235
RA_OF_ASC_NODE = 47.8488
ARG_OF_PERICENTER = 265.7551
MEAN_ANOMALY   = 91.7476

EPHEMERIS_TYPE = 0
CLASSIFICATION_TYPE = U
NORAD_CAT_ID   = 66411
ELEMENT_SET_NO = 999
REV_AT_EPOCH   = 411
BSTAR          = .93350899E-3
MEAN_MOTION_DOT = .2149E-3
MEAN_MOTION_DDOT = 0

