STARLINK-35667          
1 66400U 25257W   25340.18135957 -.00038213  00000+0 -68117-3 0  9994
2 66400  53.1592 295.1350 0001852 118.9172 241.2023 15.49356007  5361
STARLINK-35668          
1 66401U 25257X   25340.33335648 -.01694206  00000+0 -33579-1 0  9994
2 66401  53.1587 294.4065 0001557  90.2703  39.9269 15.49728436  5469
STARLINK-35644          
1 66402U 25257Y   25340.24553060  .00105964  00000+0  18841-2 0  9996
2 66402  53.1581 294.8244 0000792  85.5717 274.5382 15.49361286  5378
STARLINK-35602          
1 66403U 25257Z   25340.18068037  .00125660  00000+0  22222-2 0  9998
2 66403  53.1591 295.1307 0001472 117.2823 242.8336 15.49424028  5361
STARLINK-35691          
1 66404U 25257AA  25340.30934940  .00116952  00000+0  20746-2 0  9991
2 66404  53.1594 294.5115 0000455 127.6305 232.4745 15.49375939  5382
STARLINK-35683          
1 66405U 25257AB  25340.18000338  .00098521  00000+0  17588-2 0  9994
2 66405  53.1588 295.1251 0000873  49.0539 311.0545 15.49283742  5296
STARLINK-34840          
1 66406U 25257AC  25340.37248631  .00101821  00000+0  18117-2 0  9993
2 66406  53.1588 294.1932 0001240  83.4805 276.6345 15.49360559  5330
STARLINK-35686          
1 66407U 25257AD  25340.17964991  .00107639  00000+0  19144-2 0  9990
2 66407  53.1589 295.1224 0001858  99.0415 261.0804 15.49345649  5366
STARLINK-35679          
1 66408U 25257AE  25340.17930619  .00105806  00000+0  18816-2 0  9990
2 66408  53.1593 295.1224 0001602 102.3098 257.8091 15.49356651  5360
CHUTIAN-2 A             
1 66409U 25256A   25340.58387948  .00001354  00000+0  36107-3 0  9993
2 66409  98.2779  45.4539 0013376 196.4545 163.6217 14.49929258  3982
CHUTIAN-2 B             
1 66410U 25256B   25340.56988846  .00001320  00000+0  34455-3 0  9994
2 66410  98.2803  45.4800 0013452 200.2195 159.8468 14.51013913  3983
ZK-1A R/B               
1 66411U 25256C   25340.51803568  .00021490  00000+0  93351-3 0  9997
2 66411  98.3235  47.8488 0228987 265.7551  91.7476 15.01758996  4117
